INMARSAT 4-F2           
1 28899U 05044A   26032.94693678 -.00000271  00000+0  00000+0 0  9993
2 28899   4.9160  43.7950 0002420 278.0017 294.7203  1.00271752 74169
GSAT-8                  
1 37605U 11022A   26032.92943001  .00000074  00000+0  00000+0 0  9997
2 37605   1.7817  83.5797 0008451 202.4136 235.7743  1.00271051 51860
LUCH-5A                 
1 37951U 11074B   26032.88028975 -.00000063  00000+0  00000+0 0  9996
2 37951   8.4093  75.8150 0004797 219.7082 320.3123  1.00272131 51695
SES-5                   
1 38652U 12036A   26032.90947442  .00000024  00000+0  00000+0 0  9992
2 38652   0.0603 293.3832 0002288  13.7853 157.3003  1.00272947 43101
GSAT-10                 
1 38779U 12051B   26032.93497671  .00000000  00000+0  00000+0 0  9990
2 38779   0.0184 266.5588 0002313 177.7828 107.3047  1.00266726 48743
LUCH-5B                 
1 38977U 12061A   26032.84397620 -.00000149  00000+0  00000+0 0  9999
2 38977  10.1918  51.2073 0005782 213.5260 154.8015  1.00270306 48257
ASTRA 5B                
1 39617U 14011B   26032.88725214  .00000127  00000+0  00000+0 0  9991
2 39617   0.0752 299.5311 0004870   5.6912 169.7438  1.00269065 43312
GSAT-15                 
1 41028U 15065A   26032.93705673 -.00000267  00000+0  00000+0 0  9999
2 41028   0.0678 267.5288 0001660  11.9664 283.4662  1.00269963 37441
EUTELSAT 117 WEST B     
1 41589U 16038B   26032.68137865 -.00000021  00000+0  00000+0 0  9994
2 41589   0.0197 232.5211 0000144 257.2133 130.4218  1.00271879 35309
SES-15                  
1 42709U 17026A   26032.75028903  .00000050  00000+0  00000+0 0  9998
2 42709   0.0334 320.8404 0000827 357.2405 314.7870  1.00270971  6078
QZS-2 (MICHIBIKI-2)     
1 42738U 17028A   26032.44577139 -.00000122  00000+0  00000+0 0  9999
2 42738  39.6362 245.1344 0749179 270.0130 279.3831  1.00269938  6263
QZS-3 (MICHIBIKI-3)     
1 42917U 17048A   26032.94373009 -.00000358  00000+0  00000+0 0  9996
2 42917   0.0659 211.1046 0002396  97.9867 289.8114  1.00269385 30905
QZS-4 (MICHIBIKI-4)     
1 42965U 17062A   26032.73051890 -.00000342  00000+0  00000+0 0  9996
2 42965  40.1929 345.2151 0750504 269.2484 279.8264  1.00288957 30449
BEIDOU-3 G1             
1 43683U 18085A   26032.94633012 -.00000289  00000+0  00000+0 0  9995
2 43683   2.7343 101.3470 0001274  61.0264  90.4886  1.00272433 26706
EUTELSAT 5 WEST B       
1 44624U 19067A   26032.91755661 -.00000052  00000+0  00000+0 0  9992
2 44624   0.0926 307.7531 0003280   6.4626 143.1747  1.00271823 23086
BEIDOU-3 G2             
1 45344U 20017A   26032.93445670 -.00000150  00000+0  00000+0 0  9996
2 45344   2.5942  44.9839 0002625 270.4808 233.0786  1.00271814 21900
