[{"OBJECT_NAME":"INMARSAT 4-F2 (SOUTHPAN/PRN 122)","OBJECT_ID":"2005-044A","EPOCH":"2026-02-01T22:43:35.337792","MEAN_MOTION":1.00271752,"ECCENTRICITY":0.00024206,"INCLINATION":4.916,"RA_OF_ASC_NODE":43.795,"ARG_OF_PERICENTER":278.0017,"MEAN_ANOMALY":294.7203,"EPHEMERIS_TYPE":0,"CLASSIFICATION_TYPE":"U","NORAD_CAT_ID":28899,"ELEMENT_SET_NO":999,"REV_AT_EPOCH":7416,"BSTAR":0,"MEAN_MOTION_DOT":-2.71e-6,"MEAN_MOTION_DDOT":0},{"OBJECT_NAME":"GSAT-8 (GAGAN/PRN 127)","OBJECT_ID":"2011-022A","EPOCH":"2026-02-01T22:18:22.752864","MEAN_MOTION":1.00271051,"ECCENTRICITY":0.00084514,"INCLINATION":1.7817,"RA_OF_ASC_NODE":83.5797,"ARG_OF_PERICENTER":202.4136,"MEAN_ANOMALY":235.7743,"EPHEMERIS_TYPE":0,"CLASSIFICATION_TYPE":"U","NORAD_CAT_ID":37605,"ELEMENT_SET_NO":999,"REV_AT_EPOCH":5186,"BSTAR":0,"MEAN_MOTION_DOT":7.4e-7,"MEAN_MOTION_DDOT":0},{"OBJECT_NAME":"LUCH 5A (SDCM/PRN 140)","OBJECT_ID":"2011-074B","EPOCH":"2026-02-01T21:07:37.034400","MEAN_MOTION":1.00272131,"ECCENTRICITY":0.0004797,"INCLINATION":8.4093,"RA_OF_ASC_NODE":75.815,"ARG_OF_PERICENTER":219.7082,"MEAN_ANOMALY":320.3123,"EPHEMERIS_TYPE":0,"CLASSIFICATION_TYPE":"U","NORAD_CAT_ID":37951,"ELEMENT_SET_NO":999,"REV_AT_EPOCH":5169,"BSTAR":0,"MEAN_MOTION_DOT":-6.3e-7,"MEAN_MOTION_DDOT":0},{"OBJECT_NAME":"SES-5 (EGNOS/PRN 136)","OBJECT_ID":"2012-036A","EPOCH":"2026-02-01T21:49:38.589888","MEAN_MOTION":1.00272947,"ECCENTRICITY":0.00022884,"INCLINATION":0.0603,"RA_OF_ASC_NODE":293.3832,"ARG_OF_PERICENTER":13.7853,"MEAN_ANOMALY":157.3003,"EPHEMERIS_TYPE":0,"CLASSIFICATION_TYPE":"U","NORAD_CAT_ID":38652,"ELEMENT_SET_NO":999,"REV_AT_EPOCH":4310,"BSTAR":0,"MEAN_MOTION_DOT":2.4e-7,"MEAN_MOTION_DDOT":0},{"OBJECT_NAME":"GSAT-10 (GAGAN/PRN 128)","OBJECT_ID":"2012-051B","EPOCH":"2026-02-01T22:26:21.987744","MEAN_MOTION":1.00266726,"ECCENTRICITY":0.00023137,"INCLINATION":0.0184,"RA_OF_ASC_NODE":266.5588,"ARG_OF_PERICENTER":177.7828,"MEAN_ANOMALY":107.3047,"EPHEMERIS_TYPE":0,"CLASSIFICATION_TYPE":"U","NORAD_CAT_ID":38779,"ELEMENT_SET_NO":999,"REV_AT_EPOCH":4874,"BSTAR":0,"MEAN_MOTION_DOT":0,"MEAN_MOTION_DDOT":0},{"OBJECT_NAME":"LUCH 5B (SDCM/PRN 125)","OBJECT_ID":"2012-061A","EPOCH":"2026-02-01T20:15:19.543680","MEAN_MOTION":1.00270306,"ECCENTRICITY":0.00057821,"INCLINATION":10.1918,"RA_OF_ASC_NODE":51.2073,"ARG_OF_PERICENTER":213.526,"MEAN_ANOMALY":154.8015,"EPHEMERIS_TYPE":0,"CLASSIFICATION_TYPE":"U","NORAD_CAT_ID":38977,"ELEMENT_SET_NO":999,"REV_AT_EPOCH":4825,"BSTAR":0,"MEAN_MOTION_DOT":-1.49e-6,"MEAN_MOTION_DDOT":0},{"OBJECT_NAME":"ASTRA 5B (EGNOS/PRN 123)","OBJECT_ID":"2014-011B","EPOCH":"2026-02-01T21:17:38.584896","MEAN_MOTION":1.00269065,"ECCENTRICITY":0.00048704,"INCLINATION":0.0752,"RA_OF_ASC_NODE":299.5311,"ARG_OF_PERICENTER":5.6912,"MEAN_ANOMALY":169.7438,"EPHEMERIS_TYPE":0,"CLASSIFICATION_TYPE":"U","NORAD_CAT_ID":39617,"ELEMENT_SET_NO":999,"REV_AT_EPOCH":4331,"BSTAR":0,"MEAN_MOTION_DOT":1.27e-6,"MEAN_MOTION_DDOT":0},{"OBJECT_NAME":"GSAT-15 (GAGAN/PRN 139)","OBJECT_ID":"2015-065A","EPOCH":"2026-02-01T22:29:21.701472","MEAN_MOTION":1.00269963,"ECCENTRICITY":0.00016603,"INCLINATION":0.0678,"RA_OF_ASC_NODE":267.5288,"ARG_OF_PERICENTER":11.9664,"MEAN_ANOMALY":283.4662,"EPHEMERIS_TYPE":0,"CLASSIFICATION_TYPE":"U","NORAD_CAT_ID":41028,"ELEMENT_SET_NO":999,"REV_AT_EPOCH":3744,"BSTAR":0,"MEAN_MOTION_DOT":-2.67e-6,"MEAN_MOTION_DDOT":0},{"OBJECT_NAME":"EUTELSAT 117 WEST B (WAAS/PRN 131)","OBJECT_ID":"2016-038B","EPOCH":"2026-02-01T16:21:11.115360","MEAN_MOTION":1.00271879,"ECCENTRICITY":1.443e-5,"INCLINATION":0.0197,"RA_OF_ASC_NODE":232.5211,"ARG_OF_PERICENTER":257.2133,"MEAN_ANOMALY":130.4218,"EPHEMERIS_TYPE":0,"CLASSIFICATION_TYPE":"U","NORAD_CAT_ID":41589,"ELEMENT_SET_NO":999,"REV_AT_EPOCH":3530,"BSTAR":0,"MEAN_MOTION_DOT":-2.1e-7,"MEAN_MOTION_DDOT":0},{"OBJECT_NAME":"SES-15 (WAAS/PRN 133)","OBJECT_ID":"2017-026A","EPOCH":"2026-02-01T18:00:24.972192","MEAN_MOTION":1.00270971,"ECCENTRICITY":8.278e-5,"INCLINATION":0.0334,"RA_OF_ASC_NODE":320.8404,"ARG_OF_PERICENTER":357.2405,"MEAN_ANOMALY":314.787,"EPHEMERIS_TYPE":0,"CLASSIFICATION_TYPE":"U","NORAD_CAT_ID":42709,"ELEMENT_SET_NO":999,"REV_AT_EPOCH":607,"BSTAR":0,"MEAN_MOTION_DOT":5.0e-7,"MEAN_MOTION_DDOT":0},{"OBJECT_NAME":"QZS-2 (QZSS/PRN 194)","OBJECT_ID":"2017-028A","EPOCH":"2026-02-01T10:41:54.648096","MEAN_MOTION":1.00269938,"ECCENTRICITY":0.07491795,"INCLINATION":39.6362,"RA_OF_ASC_NODE":245.1344,"ARG_OF_PERICENTER":270.013,"MEAN_ANOMALY":279.3831,"EPHEMERIS_TYPE":0,"CLASSIFICATION_TYPE":"U","NORAD_CAT_ID":42738,"ELEMENT_SET_NO":999,"REV_AT_EPOCH":626,"BSTAR":0,"MEAN_MOTION_DOT":-1.22e-6,"MEAN_MOTION_DDOT":0},{"OBJECT_NAME":"QZS-3 (QZSS/PRN 199)","OBJECT_ID":"2017-048A","EPOCH":"2026-02-01T22:38:58.279776","MEAN_MOTION":1.00269385,"ECCENTRICITY":0.00023968,"INCLINATION":0.0659,"RA_OF_ASC_NODE":211.1046,"ARG_OF_PERICENTER":97.9867,"MEAN_ANOMALY":289.8114,"EPHEMERIS_TYPE":0,"CLASSIFICATION_TYPE":"U","NORAD_CAT_ID":42917,"ELEMENT_SET_NO":999,"REV_AT_EPOCH":3090,"BSTAR":0,"MEAN_MOTION_DOT":-3.58e-6,"MEAN_MOTION_DDOT":0},{"OBJECT_NAME":"QZS-4 (QZSS/PRN 195)","OBJECT_ID":"2017-062A","EPOCH":"2026-02-01T17:31:56.832960","MEAN_MOTION":1.00288957,"ECCENTRICITY":0.07505042,"INCLINATION":40.1929,"RA_OF_ASC_NODE":345.2151,"ARG_OF_PERICENTER":269.2484,"MEAN_ANOMALY":279.8264,"EPHEMERIS_TYPE":0,"CLASSIFICATION_TYPE":"U","NORAD_CAT_ID":42965,"ELEMENT_SET_NO":999,"REV_AT_EPOCH":3044,"BSTAR":0,"MEAN_MOTION_DOT":-3.42e-6,"MEAN_MOTION_DDOT":0},{"OBJECT_NAME":"BEIDOU-3 G1 (PRN 130)","OBJECT_ID":"2018-085A","EPOCH":"2026-02-01T22:42:42.922368","MEAN_MOTION":1.00272433,"ECCENTRICITY":0.00012745,"INCLINATION":2.7343,"RA_OF_ASC_NODE":101.347,"ARG_OF_PERICENTER":61.0264,"MEAN_ANOMALY":90.4886,"EPHEMERIS_TYPE":0,"CLASSIFICATION_TYPE":"U","NORAD_CAT_ID":43683,"ELEMENT_SET_NO":999,"REV_AT_EPOCH":2670,"BSTAR":0,"MEAN_MOTION_DOT":-2.89e-6,"MEAN_MOTION_DDOT":0},{"OBJECT_NAME":"EUTELSAT 5 WEST B (EGNOS/PRN 121)","OBJECT_ID":"2019-067A","EPOCH":"2026-02-01T22:01:16.891104","MEAN_MOTION":1.00271823,"ECCENTRICITY":0.00032802,"INCLINATION":0.0926,"RA_OF_ASC_NODE":307.7531,"ARG_OF_PERICENTER":6.4626,"MEAN_ANOMALY":143.1747,"EPHEMERIS_TYPE":0,"CLASSIFICATION_TYPE":"U","NORAD_CAT_ID":44624,"ELEMENT_SET_NO":999,"REV_AT_EPOCH":2308,"BSTAR":0,"MEAN_MOTION_DOT":-5.2e-7,"MEAN_MOTION_DDOT":0},{"OBJECT_NAME":"BEIDOU-3 G2 (PRN 144)","OBJECT_ID":"2020-017A","EPOCH":"2026-02-01T22:25:37.058880","MEAN_MOTION":1.00271814,"ECCENTRICITY":0.00026259,"INCLINATION":2.5942,"RA_OF_ASC_NODE":44.9839,"ARG_OF_PERICENTER":270.4808,"MEAN_ANOMALY":233.0786,"EPHEMERIS_TYPE":0,"CLASSIFICATION_TYPE":"U","NORAD_CAT_ID":45344,"ELEMENT_SET_NO":999,"REV_AT_EPOCH":2190,"BSTAR":0,"MEAN_MOTION_DOT":-1.5e-6,"MEAN_MOTION_DDOT":0}]
